ALOS (DAICHI)           
1 28931U 06002A   26038.27572148  .00002174  00000+0  37314-3 0  9990
2 28931  98.1171 354.3968 0001978  68.2912 291.8504 14.69708838 69012
H-2A R/B                
1 28932U 06002B   26038.31504693  .00010893  00000+0  55398-3 0  9995
2 28932  98.2362 182.7541 0052904 345.8847  14.0901 15.15812456 89834
RESURS-DK 1             
1 29228U 06021A   26038.24877116  .00004154  00000+0  24363-3 0  9991
2 29228  69.9349 315.7547 0004745 207.2880 152.8037 15.12566022 82921
CZ-4B R/B               
1 29507U 06046C   26038.12972999  .00006755  00000+0  34452-3 0  9999
2 29507  97.5651  83.1180 0033881  16.2062 344.0246 15.16573027 55414
CZ-2C R/B               
1 31114U 07010B   26038.29137267  .00000161  00000+0  92914-4 0  9990
2 31114  98.3969 153.0969 0059376  23.6602 336.7286 14.20235581975409
COSMO-SKYMED 1          
1 31598U 07023A   26038.30640975  .00004532  00000+0  40619-3 0  9997
2 31598  97.8857 229.1015 0000949  74.3478 285.7848 14.96293506 10364
COSMOS 2428             
1 31792U 07029A   26038.09273574  .00000345  00000+0  21074-3 0  9994
2 31792  70.9396 267.5714 0007203 310.8339  49.2157 14.12931658959774
SL-16 R/B               
1 31793U 07029B   26037.95935683  .00000451  00000+0  25832-3 0  9999
2 31793  70.9731 236.9806 0001895 276.4183 190.8427 14.14830269961027
KORONAS-FOTON           
1 33504U 09003A   26038.21776806  .00013143  00000+0  30177-3 0  9995
2 33504  82.4325 307.5353 0008904 268.1026  91.9201 15.42522452941045
CZ-2C R/B               
1 37731U 11030B   26037.87366401  .00002065  00000+0  26604-3 0  9992
2 37731  97.8493 355.7690 0054209  90.5510 329.0695 14.81103298785537
H-2A R/B                
1 38341U 12025E   26037.87436512  .00004490  00000+0  40935-3 0  9993
2 38341  98.4682   2.4748 0046016  54.4497 306.0999 14.94896263743612
SHIJIAN-16 (SJ-16)      
1 39358U 13057A   26038.32607743  .00002151  00000+0  21315-3 0  9998
2 39358  74.9703 242.5658 0016868 188.1763 171.9153 14.92238407666976
