CCSDS_OMM_VERS = 2.0
CREATION_DATE  = 
ORIGINATOR     = 

OBJECT_NAME    = ALOS (DAICHI)
OBJECT_ID      = 2006-002A
CENTER_NAME    = EARTH
REF_FRAME      = TEME
TIME_SYSTEM    = UTC
MEAN_ELEMENT_THEORY = SGP/SGP4

EPOCH          = 2026-02-07T06:37:02.335872
MEAN_MOTION    = 14.69708838
ECCENTRICITY   = .00019781
INCLINATION    = 98.1171
RA_OF_ASC_NODE = 354.3968
ARG_OF_PERICENTER = 68.2912
MEAN_ANOMALY   = 291.8504

EPHEMERIS_TYPE = 0
CLASSIFICATION_TYPE = U
NORAD_CAT_ID   = 28931
ELEMENT_SET_NO = 999
REV_AT_EPOCH   = 6901
BSTAR          = .37314193E-3
MEAN_MOTION_DOT = .2174E-4
MEAN_MOTION_DDOT = 0

CCSDS_OMM_VERS = 2.0
CREATION_DATE  = 
ORIGINATOR     = 

OBJECT_NAME    = H-2A R/B
OBJECT_ID      = 2006-002B
CENTER_NAME    = EARTH
REF_FRAME      = TEME
TIME_SYSTEM    = UTC
MEAN_ELEMENT_THEORY = SGP/SGP4

EPOCH          = 2026-02-07T07:33:40.054752
MEAN_MOTION    = 15.15812456
ECCENTRICITY   = .00529048
INCLINATION    = 98.2362
RA_OF_ASC_NODE = 182.7541
ARG_OF_PERICENTER = 345.8847
MEAN_ANOMALY   = 14.0901

EPHEMERIS_TYPE = 0
CLASSIFICATION_TYPE = U
NORAD_CAT_ID   = 28932
ELEMENT_SET_NO = 999
REV_AT_EPOCH   = 8983
BSTAR          = .55398293E-3
MEAN_MOTION_DOT = .10893E-3
MEAN_MOTION_DDOT = 0

CCSDS_OMM_VERS = 2.0
CREATION_DATE  = 
ORIGINATOR     = 

OBJECT_NAME    = RESURS-DK 1
OBJECT_ID      = 2006-021A
CENTER_NAME    = EARTH
REF_FRAME      = TEME
TIME_SYSTEM    = UTC
MEAN_ELEMENT_THEORY = SGP/SGP4

EPOCH          = 2026-02-07T05:58:13.828224
MEAN_MOTION    = 15.12566022
ECCENTRICITY   = .00047456
INCLINATION    = 69.9349
RA_OF_ASC_NODE = 315.7547
ARG_OF_PERICENTER = 207.2880
MEAN_ANOMALY   = 152.8037

EPHEMERIS_TYPE = 0
CLASSIFICATION_TYPE = U
NORAD_CAT_ID   = 29228
ELEMENT_SET_NO = 999
REV_AT_EPOCH   = 8292
BSTAR          = .24363327E-3
MEAN_MOTION_DOT = .4154E-4
MEAN_MOTION_DDOT = 0

CCSDS_OMM_VERS = 2.0
CREATION_DATE  = 
ORIGINATOR     = 

OBJECT_NAME    = CZ-4B R/B
OBJECT_ID      = 2006-046C
CENTER_NAME    = EARTH
REF_FRAME      = TEME
TIME_SYSTEM    = UTC
MEAN_ELEMENT_THEORY = SGP/SGP4

EPOCH          = 2026-02-07T03:06:48.671136
MEAN_MOTION    = 15.16573027
ECCENTRICITY   = .0033881
INCLINATION    = 97.5651
RA_OF_ASC_NODE = 83.1180
ARG_OF_PERICENTER = 16.2062
MEAN_ANOMALY   = 344.0246

EPHEMERIS_TYPE = 0
CLASSIFICATION_TYPE = U
NORAD_CAT_ID   = 29507
ELEMENT_SET_NO = 999
REV_AT_EPOCH   = 5541
BSTAR          = .34451687E-3
MEAN_MOTION_DOT = .6755E-4
MEAN_MOTION_DDOT = 0

CCSDS_OMM_VERS = 2.0
CREATION_DATE  = 
ORIGINATOR     = 

OBJECT_NAME    = CZ-2C R/B
OBJECT_ID      = 2007-010B
CENTER_NAME    = EARTH
REF_FRAME      = TEME
TIME_SYSTEM    = UTC
MEAN_ELEMENT_THEORY = SGP/SGP4

EPOCH          = 2026-02-07T06:59:34.598688
MEAN_MOTION    = 14.20235581
ECCENTRICITY   = .00593769
INCLINATION    = 98.3969
RA_OF_ASC_NODE = 153.0969
ARG_OF_PERICENTER = 23.6602
MEAN_ANOMALY   = 336.7286

EPHEMERIS_TYPE = 0
CLASSIFICATION_TYPE = U
NORAD_CAT_ID   = 31114
ELEMENT_SET_NO = 999
REV_AT_EPOCH   = 97540
BSTAR          = .92914023E-4
MEAN_MOTION_DOT = .161E-5
MEAN_MOTION_DDOT = 0

CCSDS_OMM_VERS = 2.0
CREATION_DATE  = 
ORIGINATOR     = 

OBJECT_NAME    = COSMO-SKYMED 1
OBJECT_ID      = 2007-023A
CENTER_NAME    = EARTH
REF_FRAME      = TEME
TIME_SYSTEM    = UTC
MEAN_ELEMENT_THEORY = SGP/SGP4

EPOCH          = 2026-02-07T07:21:13.802400
MEAN_MOTION    = 14.96293506
ECCENTRICITY   = .00009493
INCLINATION    = 97.8857
RA_OF_ASC_NODE = 229.1015
ARG_OF_PERICENTER = 74.3478
MEAN_ANOMALY   = 285.7848

EPHEMERIS_TYPE = 0
CLASSIFICATION_TYPE = U
NORAD_CAT_ID   = 31598
ELEMENT_SET_NO = 999
REV_AT_EPOCH   = 1036
BSTAR          = .40619218E-3
MEAN_MOTION_DOT = .4532E-4
MEAN_MOTION_DDOT = 0

CCSDS_OMM_VERS = 2.0
CREATION_DATE  = 
ORIGINATOR     = 

OBJECT_NAME    = COSMOS 2428
OBJECT_ID      = 2007-029A
CENTER_NAME    = EARTH
REF_FRAME      = TEME
TIME_SYSTEM    = UTC
MEAN_ELEMENT_THEORY = SGP/SGP4

EPOCH          = 2026-02-07T02:13:32.367936
MEAN_MOTION    = 14.12931658
ECCENTRICITY   = .00072035
INCLINATION    = 70.9396
RA_OF_ASC_NODE = 267.5714
ARG_OF_PERICENTER = 310.8339
MEAN_ANOMALY   = 49.2157

EPHEMERIS_TYPE = 0
CLASSIFICATION_TYPE = U
NORAD_CAT_ID   = 31792
ELEMENT_SET_NO = 999
REV_AT_EPOCH   = 95977
BSTAR          = .21073578E-3
MEAN_MOTION_DOT = .345E-5
MEAN_MOTION_DDOT = 0

CCSDS_OMM_VERS = 2.0
CREATION_DATE  = 
ORIGINATOR     = 

OBJECT_NAME    = SL-16 R/B
OBJECT_ID      = 2007-029B
CENTER_NAME    = EARTH
REF_FRAME      = TEME
TIME_SYSTEM    = UTC
MEAN_ELEMENT_THEORY = SGP/SGP4

EPOCH          = 2026-02-06T23:01:28.430112
MEAN_MOTION    = 14.14830269
ECCENTRICITY   = .0001895
INCLINATION    = 70.9731
RA_OF_ASC_NODE = 236.9806
ARG_OF_PERICENTER = 276.4183
MEAN_ANOMALY   = 190.8427

EPHEMERIS_TYPE = 0
CLASSIFICATION_TYPE = U
NORAD_CAT_ID   = 31793
ELEMENT_SET_NO = 999
REV_AT_EPOCH   = 96102
BSTAR          = .25832E-3
MEAN_MOTION_DOT = .451E-5
MEAN_MOTION_DDOT = 0

CCSDS_OMM_VERS = 2.0
CREATION_DATE  = 
ORIGINATOR     = 

OBJECT_NAME    = KORONAS-FOTON
OBJECT_ID      = 2009-003A
CENTER_NAME    = EARTH
REF_FRAME      = TEME
TIME_SYSTEM    = UTC
MEAN_ELEMENT_THEORY = SGP/SGP4

EPOCH          = 2026-02-07T05:13:35.160384
MEAN_MOTION    = 15.42522452
ECCENTRICITY   = .00089047
INCLINATION    = 82.4325
RA_OF_ASC_NODE = 307.5353
ARG_OF_PERICENTER = 268.1026
MEAN_ANOMALY   = 91.9201

EPHEMERIS_TYPE = 0
CLASSIFICATION_TYPE = U
NORAD_CAT_ID   = 33504
ELEMENT_SET_NO = 999
REV_AT_EPOCH   = 94104
BSTAR          = .30176689E-3
MEAN_MOTION_DOT = .13143E-3
MEAN_MOTION_DDOT = 0

CCSDS_OMM_VERS = 2.0
CREATION_DATE  = 
ORIGINATOR     = 

OBJECT_NAME    = CZ-2C R/B
OBJECT_ID      = 2011-030B
CENTER_NAME    = EARTH
REF_FRAME      = TEME
TIME_SYSTEM    = UTC
MEAN_ELEMENT_THEORY = SGP/SGP4

EPOCH          = 2026-02-06T20:58:04.570464
MEAN_MOTION    = 14.81103298
ECCENTRICITY   = .00542093
INCLINATION    = 97.8493
RA_OF_ASC_NODE = 355.7690
ARG_OF_PERICENTER = 90.5510
MEAN_ANOMALY   = 329.0695

EPHEMERIS_TYPE = 0
CLASSIFICATION_TYPE = U
NORAD_CAT_ID   = 37731
ELEMENT_SET_NO = 999
REV_AT_EPOCH   = 78553
BSTAR          = .26604436E-3
MEAN_MOTION_DOT = .2065E-4
MEAN_MOTION_DDOT = 0

CCSDS_OMM_VERS = 2.0
CREATION_DATE  = 
ORIGINATOR     = 

OBJECT_NAME    = H-2A R/B
OBJECT_ID      = 2012-025E
CENTER_NAME    = EARTH
REF_FRAME      = TEME
TIME_SYSTEM    = UTC
MEAN_ELEMENT_THEORY = SGP/SGP4

EPOCH          = 2026-02-06T20:59:05.146368
MEAN_MOTION    = 14.94896263
ECCENTRICITY   = .0046016
INCLINATION    = 98.4682
RA_OF_ASC_NODE = 2.4748
ARG_OF_PERICENTER = 54.4497
MEAN_ANOMALY   = 306.0999

EPHEMERIS_TYPE = 0
CLASSIFICATION_TYPE = U
NORAD_CAT_ID   = 38341
ELEMENT_SET_NO = 999
REV_AT_EPOCH   = 74361
BSTAR          = .40935E-3
MEAN_MOTION_DOT = .449E-4
MEAN_MOTION_DDOT = 0

CCSDS_OMM_VERS = 2.0
CREATION_DATE  = 
ORIGINATOR     = 

OBJECT_NAME    = SHIJIAN-16 (SJ-16)
OBJECT_ID      = 2013-057A
CENTER_NAME    = EARTH
REF_FRAME      = TEME
TIME_SYSTEM    = UTC
MEAN_ELEMENT_THEORY = SGP/SGP4

EPOCH          = 2026-02-07T07:49:33.089952
MEAN_MOTION    = 14.92238407
ECCENTRICITY   = .00168685
INCLINATION    = 74.9703
RA_OF_ASC_NODE = 242.5658
ARG_OF_PERICENTER = 188.1763
MEAN_ANOMALY   = 171.9153

EPHEMERIS_TYPE = 0
CLASSIFICATION_TYPE = U
NORAD_CAT_ID   = 39358
ELEMENT_SET_NO = 999
REV_AT_EPOCH   = 66697
BSTAR          = .21315121E-3
MEAN_MOTION_DOT = .2151E-4
MEAN_MOTION_DDOT = 0

